STARLINK-32195          
1 60440U 24144R   26068.70428610 -.00000582  00000+0 -75280-5 0  9992
2 60440  53.1590 216.9022 0000925  99.2130 260.8975 15.30191375 89314
LIZZIESAT-2 (LS-2)      
1 62383U 24247G   26068.49140277  .00009388  00000+0  34517-3 0  9997
2 62383  44.9909 117.0823 0004092 327.5136  32.5495 15.28222796 67716
